[{"OBJECT_NAME":"STARLINK-5168","OBJECT_ID":"2022-136W","EPOCH":"2026-03-09T22:05:11.176800","MEAN_MOTION":15.08851703,"ECCENTRICITY":0.00024416,"INCLINATION":53.2172,"RA_OF_ASC_NODE":342.7407,"ARG_OF_PERICENTER":126.5718,"MEAN_ANOMALY":233.5499,"EPHEMERIS_TYPE":0,"CLASSIFICATION_TYPE":"U","NORAD_CAT_ID":54071,"ELEMENT_SET_NO":999,"REV_AT_EPOCH":18688,"BSTAR":0.0001218469,"MEAN_MOTION_DOT":1.652e-5,"MEAN_MOTION_DDOT":0},{"OBJECT_NAME":"FENGYUN 1C DEB","OBJECT_ID":"1999-025CRT","EPOCH":"2026-03-08T05:25:55.615296","MEAN_MOTION":14.72591337,"ECCENTRICITY":0.01689255,"INCLINATION":99.0682,"RA_OF_ASC_NODE":62.2268,"ARG_OF_PERICENTER":58.082,"MEAN_ANOMALY":303.669,"EPHEMERIS_TYPE":0,"CLASSIFICATION_TYPE":"U","NORAD_CAT_ID":32125,"ELEMENT_SET_NO":999,"REV_AT_EPOCH":71780,"BSTAR":0.003714293,"MEAN_MOTION_DOT":0.00029682,"MEAN_MOTION_DDOT":0}]
